{
    "links": {
        "self": "http://www.neowsapp.com/rest/v1/neo/3799727?api_key=iIulBulltgU6a56xZRHN4H3l9WmuAYTsLGpBGhQ2"
    },
    "id": "3799727",
    "neo_reference_id": "3799727",
    "name": "(2018 DK1)",
    "designation": "2018 DK1",
    "nasa_jpl_url": "http://ssd.jpl.nasa.gov/sbdb.cgi?sstr=3799727",
    "absolute_magnitude_h": 24.5,
    "estimated_diameter": {
        "kilometers": {
            "estimated_diameter_min": 0.0334622374,
            "estimated_diameter_max": 0.0748238376
        },
        "meters": {
            "estimated_diameter_min": 33.4622374455,
            "estimated_diameter_max": 74.8238376074
        },
        "miles": {
            "estimated_diameter_min": 0.0207924639,
            "estimated_diameter_max": 0.0464933628
        },
        "feet": {
            "estimated_diameter_min": 109.7842471007,
            "estimated_diameter_max": 245.4850393757
        }
    },
    "is_potentially_hazardous_asteroid": false,
    "close_approach_data": [
        {
            "close_approach_date": "2016-03-14",
            "close_approach_date_full": "2016-Mar-14 18:45",
            "epoch_date_close_approach": 1457981100000,
            "relative_velocity": {
                "kilometers_per_second": "12.6344784207",
                "kilometers_per_hour": "45484.1223145927",
                "miles_per_hour": "28262.064779309"
            },
            "miss_distance": {
                "astronomical": "0.3561414081",
                "lunar": "138.5390077509",
                "kilometers": "53277996.070560747",
                "miles": "33105411.6399104286"
            },
            "orbiting_body": "Earth"
        },
        {
            "close_approach_date": "2018-02-25",
            "close_approach_date_full": "2018-Feb-25 05:51",
            "epoch_date_close_approach": 1519537860000,
            "relative_velocity": {
                "kilometers_per_second": "7.9785568867",
                "kilometers_per_hour": "28722.8047921928",
                "miles_per_hour": "17847.2338999044"
            },
            "miss_distance": {
                "astronomical": "0.0847379531",
                "lunar": "32.9630637559",
                "kilometers": "12676617.291919897",
                "miles": "7876884.7292006986"
            },
            "orbiting_body": "Earth"
        },
        {
            "close_approach_date": "2020-02-09",
            "close_approach_date_full": "2020-Feb-09 22:31",
            "epoch_date_close_approach": 1581287460000,
            "relative_velocity": {
                "kilometers_per_second": "13.9908552716",
                "kilometers_per_hour": "50367.078977697",
                "miles_per_hour": "31296.1441570029"
            },
            "miss_distance": {
                "astronomical": "0.4033351995",
                "lunar": "156.8973926055",
                "kilometers": "60338086.741225065",
                "miles": "37492348.557693297"
            },
            "orbiting_body": "Earth"
        }
    ],
    "orbital_data": {
        "orbit_id": "5",
        "orbit_determination_date": "2018-04-09 06:26:17",
        "first_observation_date": "2018-02-23",
        "last_observation_date": "2018-04-08",
        "data_arc_in_days": 44,
        "observations_used": 50,
        "orbit_uncertainty": "7",
        "minimum_orbit_intersection": ".081939",
        "jupiter_tisserand_invariant": "4.353",
        "epoch_osculation": "2459000.5",
        "eccentricity": ".3114801681110919",
        "semi_major_axis": "1.557078521999112",
        "inclination": "13.48051810916396",
        "ascending_node_longitude": "156.4517863659592",
        "orbital_period": "709.6826666961866",
        "perihelion_distance": "1.072079442204658",
        "perihelion_argument": ".03839094422943129",
        "aphelion_distance": "2.042077601793566",
        "perihelion_time": "2458883.470853648821",
        "mean_anomaly": "59.3652552943927",
        "mean_motion": ".5072689765355578",
        "equinox": "J2000",
        "orbit_class": {
            "orbit_class_type": "AMO",
            "orbit_class_description": "Near-Earth asteroid orbits similar to that of 1221 Amor",
            "orbit_class_range": "1.017 AU < q (perihelion) < 1.3 AU"
        }
    },
    "is_sentry_object": false
}